NORAD_CAT_ID,OBJECT_NAME,OBJECT_TYPE,EPOCH,MEAN_MOTION,ECCENTRICITY,INCLINATION,RA_OF_ASC_NODE,ARG_OF_PERICENTER,MEAN_ANOMALY,BSTAR,MEAN_MOTION_DOT,MEAN_MOTION_DDOT,TLE_LINE0,TLE_LINE1,TLE_LINE2,SEMIMAJOR_AXIS,PERIOD,APOGEE,PERIGEE,DECAYED
53796.0,STARLINK-4721,PAYLOAD,2024-02-19 14:32:50,15.08834397,0.0001367,53.2192,16.554,92.4485,267.6664,3.4367e-05,2.59e-06,0.0,0 STARLINK-4721,1 53796U 22111Z   24050.60613805  .00000259  00000-0  34367-4 0  9990,2 53796  53.2192  16.5540 0001367  92.4485 267.6664 15.08834397 80917,6917.898,95.438,540.708,538.817,0.0
53796.0,STARLINK-4721,PAYLOAD,2024-02-19 22:29:46,15.08836501,0.0001374,53.2194,15.0671,90.2929,269.8221,-4.54e-06,-3.6e-06,0.0,0 STARLINK-4721,1 53796U 22111Z   24050.93733943 -.00000360  00000-0 -45400-5 0  9998,2 53796  53.2194  15.0671 0001374  90.2929 269.8221 15.08836501 80962,6917.891,95.438,540.707,538.806,0.0
53796.0,STARLINK-4721,PAYLOAD,2024-02-20 06:26:41,15.08841766,0.0001375,53.219,13.5803,87.4186,272.6964,3.7344e-05,3.06e-06,0.0,0 STARLINK-4721,1 53796U 22111Z   24051.26853461  .00000306  00000-0  37344-4 0  9998,2 53796  53.2190  13.5803 0001375  87.4186 272.6964 15.08841766 80260,6917.875,95.437,540.691,538.789,0.0
53796.0,STARLINK-4721,PAYLOAD,2024-02-20 14:23:37,15.0883975,0.0001366,53.219,12.0935,88.4738,271.641,1.9634e-05,2.5e-07,0.0,0 STARLINK-4721,1 53796U 22111Z   24051.59973631  .00000025  00000-0  19634-4 0  9996,2 53796  53.2190  12.0935 0001366  88.4738 271.6410 15.08839750 81068,6917.881,95.438,540.691,538.801,0.0
53796.0,STARLINK-4721,PAYLOAD,2024-02-21 03:06:42,15.08835663,0.0001521,53.219,9.714,89.3965,270.7201,6.04e-05,6.73e-06,0.0,0 STARLINK-4721,1 53796U 22111Z   24052.12965860  .00000673  00000-0  60400-4 0  9997,2 53796  53.2190   9.7140 0001521  89.3965 270.7201 15.08835663 80396,6917.894,95.438,540.811,538.706,0.0
53796.0,STARLINK-4721,PAYLOAD,2024-02-21 14:14:24,15.0883766,0.0001466,53.2189,7.6328,85.7464,274.3696,2.6885e-05,1.4e-06,0.0,0 STARLINK-4721,1 53796U 22111Z   24052.59333891  .00000140  00000-0  26885-4 0  9999,2 53796  53.2189   7.6328 0001466  85.7464 274.3696 15.08837660 81210,6917.888,95.438,540.767,538.738,0.0
53796.0,STARLINK-4721,PAYLOAD,2024-02-22 04:32:52,15.08843347,0.000141,53.2184,4.9579,88.4781,271.6373,-1.5147e-05,-5.29e-06,0.0,0 STARLINK-4721,1 53796U 22111Z   24053.18949692 -.00000529  00000-0 -15147-4 0  9999,2 53796  53.2184   4.9579 0001410  88.4781 271.6373 15.08843347 80551,6917.87,95.437,540.711,538.76,0.0
53796.0,STARLINK-4721,PAYLOAD,2024-02-22 14:05:11,15.08839911,0.0001467,53.2184,3.1731,88.9365,271.1795,-2.8415e-05,-7.4e-06,0.0,0 STARLINK-4721,1 53796U 22111Z   24053.58693908 -.00000740  00000-0 -28415-4 0  9996,2 53796  53.2184   3.1731 0001467  88.9365 271.1795 15.08839911 81362,6917.881,95.438,540.761,538.731,0.0
53796.0,STARLINK-4721,PAYLOAD,2024-02-23 05:59:02,15.08848492,0.0001537,53.2188,0.1987,86.4708,273.6459,-8.5535e-05,-1.649e-05,0.0,0 STARLINK-4721,1 53796U 22111Z   24054.24933624 -.00001649  00000-0 -85535-4 0  9997,2 53796  53.2188   0.1987 0001537  86.4708 273.6459 15.08848492 80714,6917.854,95.437,540.783,538.656,0.0
53796.0,STARLINK-4721,PAYLOAD,2024-02-23 13:55:58,15.08837424,0.0001489,53.2187,358.7118,86.8119,273.3044,1.4148e-06,-2.65e-06,0.0,0 STARLINK-4721,1 53796U 22111Z   24054.58053974 -.00000265  00000-0  14148-5 0  9990,2 53796  53.2187 358.7118 0001489  86.8119 273.3044 15.08837424 81516,6917.888,95.438,540.783,538.723,0.0
53796.0,STARLINK-4721,PAYLOAD,2024-02-23 20:17:31,15.08838882,0.0001416,53.2178,357.522,87.964,272.1514,2.1247e-05,5e-07,0.0,0 STARLINK-4721,1 53796U 22111Z   24054.84549788  .00000050  00000-0  21247-4 0  9990,2 53796  53.2178 357.5220 0001416  87.9640 272.1514 15.08838882 81550,6917.884,95.438,540.728,538.769,0.0
53796.0,STARLINK-4721,PAYLOAD,2024-02-24 02:39:03,15.08842072,0.0001139,53.2175,356.3326,91.6485,268.4638,-5.2928e-05,-1.13e-05,0.0,0 STARLINK-4721,1 53796U 22111Z   24055.11045818 -.00001130  00000-0 -52928-4 0  9998,2 53796  53.2175 356.3326 0001139  91.6485 268.4638 15.08842072 80844,6917.874,95.437,540.527,538.951,0.0
53796.0,STARLINK-4721,PAYLOAD,2024-02-24 20:08:18,15.08835892,0.0001107,53.2172,353.0613,95.8381,264.2737,-5.8913e-06,-3.82e-06,0.0,0 STARLINK-4721,1 53796U 22111Z   24055.83910085 -.00000382  00000-0 -58913-5 0  9993,2 53796  53.2172 353.0613 0001107  95.8381 264.2737 15.08835892 81702,6917.893,95.438,540.524,538.992,0.0
53796.0,STARLINK-4721,PAYLOAD,2024-02-25 05:40:36,15.08840249,0.0001119,53.2173,351.2794,82.2792,277.8327,6.7234e-05,7.82e-06,0.0,0 STARLINK-4721,1 53796U 22111Z   24056.23653605  .00000782  00000-0  67234-4 0  9997,2 53796  53.2173 351.2794 0001119  82.2792 277.8327 15.08840249 81013,6917.88,95.438,540.519,538.971,0.0
53796.0,STARLINK-4721,PAYLOAD,2024-02-25 12:02:09,15.08840708,0.00011,53.2168,350.0885,87.3129,272.7989,-3.6172e-06,-3.45e-06,0.0,0 STARLINK-4721,1 53796U 22111Z   24056.50149775 -.00000345  00000-0 -36172-5 0  9990,2 53796  53.2168 350.0885 0001100  87.3129 272.7989 15.08840708 81800,6917.878,95.438,540.504,538.982,0.0
53796.0,STARLINK-4721,PAYLOAD,2024-02-25 23:09:51,15.08845508,0.0001576,53.2179,348.0059,100.076,260.041,-6.2623e-05,-1.285e-05,0.0,0 STARLINK-4721,1 53796U 22111Z   24056.96517786 -.00001285  00000-0 -62623-4 0  9994,2 53796  53.2179 348.0059 0001576 100.0760 260.0410 15.08845508 81872,6917.864,95.437,540.819,538.638,0.0
53796.0,STARLINK-4721,PAYLOAD,2024-02-26 05:31:24,15.08844906,0.0001191,53.2176,346.8179,97.0421,263.0706,-0.00010545,-1.966e-05,0.0,0 STARLINK-4721,1 53796U 22111Z   24057.23013903 -.00001966  00000-0 -10545-3 0  9998,2 53796  53.2176 346.8179 0001191  97.0421 263.0706 15.08844906 81917,6917.865,95.437,540.554,538.906,0.0
53796.0,STARLINK-4721,PAYLOAD,2024-02-26 19:49:52,15.08833656,0.0001131,53.217,344.1415,95.9191,264.193,-5.9327e-05,-1.232e-05,0.0,0 STARLINK-4721,1 53796U 22111Z   24057.82630775 -.00001232  00000-0 -59327-4 0  9993,2 53796  53.2170 344.1415 0001131  95.9191 264.1930 15.08833656 81258,6917.9,95.438,540.547,538.982,0.0
53796.0,STARLINK-4721,PAYLOAD,2024-02-26 23:00:39,15.0879795,0.0001414,53.2173,343.547,99.2596,260.8557,0.0004251,6.476e-05,0.0,0 STARLINK-4721,1 53796U 22111Z   24057.95879121  .00006476  00000-0  42510-3 0  9995,2 53796  53.2173 343.5470 0001414  99.2596 260.8557 15.08797950 82025,6918.009,95.44,540.852,538.896,0.0
53796.0,STARLINK-4721,PAYLOAD,2024-02-27 03:46:48,15.08839456,0.000116,53.2173,342.6547,94.3645,265.7479,-6.2673e-06,-3.88e-06,0.0,0 STARLINK-4721,1 53796U 22111Z   24058.15750295 -.00000388  00000-0 -62673-5 0  9990,2 53796  53.2173 342.6547 0001160  94.3645 265.7479 15.08839456 81304,6917.882,95.438,540.55,538.945,0.0
53796.0,STARLINK-4721,PAYLOAD,2024-02-27 11:43:43,15.08838152,0.0001155,53.2176,341.168,93.0266,267.0859,2.3493e-05,8.6e-07,0.0,0 STARLINK-4721,1 53796U 22111Z   24058.48870284  .00000086  00000-0  23493-4 0  9996,2 53796  53.2176 341.1680 0001155  93.0266 267.0859 15.08838152 82106,6917.886,95.438,540.55,538.952,0.0
53796.0,STARLINK-4721,PAYLOAD,2024-02-27 22:51:26,15.08835785,0.0001216,53.2182,339.0871,95.8836,264.2295,-8.7893e-06,-4.28e-06,0.0,0 STARLINK-4721,1 53796U 22111Z   24058.95238653 -.00000428  00000-0 -87893-5 0  9993,2 53796  53.2182 339.0871 0001216  95.8836 264.2295 15.08835785 82171,6917.893,95.438,540.599,538.917,0.0
53796.0,STARLINK-4721,PAYLOAD,2024-02-28 03:37:35,15.08832201,0.0001254,53.2184,338.1954,96.6754,263.4381,1.2978e-05,-8.1e-07,0.0,0 STARLINK-4721,1 53796U 22111Z   24059.15110869 -.00000081  00000-0  12978-4 0  9999,2 53796  53.2184 338.1954 0001254  96.6754 263.4381 15.08832201 81452,6917.904,95.438,540.637,538.902,0.0
53796.0,STARLINK-4721,PAYLOAD,2024-02-28 11:34:30,15.08843588,0.0001226,53.2183,336.7082,96.3433,263.7699,4.6796e-05,4.57e-06,0.0,0 STARLINK-4721,1 53796U 22111Z   24059.48230073  .00000457  00000-0  46796-4 0  9996,2 53796  53.2183 336.7082 0001226  96.3433 263.7699 15.08843588 81508,6917.869,95.437,540.583,538.886,0.0
53796.0,STARLINK-4721,PAYLOAD,2024-02-28 22:42:13,15.08835266,0.0001263,53.2184,334.6263,94.153,265.9606,-4.4599e-06,-3.59e-06,0.0,0 STARLINK-4721,1 53796U 22111Z   24059.94598923 -.00000359  00000-0 -44599-5 0  9991,2 53796  53.2184 334.6263 0001263  94.1530 265.9606 15.08835266 82329,6917.895,95.438,540.634,538.886,0.0
53796.0,STARLINK-4721,PAYLOAD,2024-02-29 03:28:22,15.08838612,0.0001502,53.2191,333.734,92.3455,267.7709,1.695e-05,-1.8e-07,0.0,0 STARLINK-4721,1 53796U 22111Z   24060.14470719 -.00000018  00000-0  16950-4 0  9997,2 53796  53.2191 333.7340 0001502  92.3455 267.7709 15.08838612 81607,6917.885,95.438,540.789,538.711,0.0
53796.0,STARLINK-4721,PAYLOAD,2024-02-29 11:25:18,15.08840053,0.0001606,53.2198,332.2471,91.2551,268.8625,2.8719e-05,1.69e-06,0.0,0 STARLINK-4721,1 53796U 22111Z   24060.47590626  .00000169  00000-0  28719-4 0  9995,2 53796  53.2198 332.2471 0001606  91.2551 268.8625 15.08840053 82403,6917.88,95.438,540.856,538.634,0.0
53796.0,STARLINK-4721,PAYLOAD,2024-02-29 22:33:00,15.08839504,0.0001278,53.2176,330.1667,95.4627,264.6511,4.257e-05,3.9e-06,0.0,0 STARLINK-4721,1 53796U 22111Z   24060.93958464  .00000390  00000-0  42570-4 0  9991,2 53796  53.2176 330.1667 0001278  95.4627 264.6511 15.08839504 82472,6917.882,95.438,540.631,538.863,0.0
53796.0,STARLINK-4721,PAYLOAD,2024-03-01 03:19:09,15.0883768,0.0001334,53.218,329.2748,98.5368,261.5776,5.3009e-05,5.56e-06,0.0,0 STARLINK-4721,1 53796U 22111Z   24061.13830535  .00000556  00000-0  53009-4 0  9995,2 53796  53.2180 329.2748 0001334  98.5368 261.5776 15.08837680 82501,6917.887,95.438,540.675,538.83,0.0
53796.0,STARLINK-4721,PAYLOAD,2024-03-01 22:23:47,15.0883863,0.0001175,53.2173,325.7069,94.943,265.1697,4.3174e-05,3.99e-06,0.0,0 STARLINK-4721,1 53796U 22111Z   24061.93318412  .00000399  00000-0  43174-4 0  9995,2 53796  53.2173 325.7069 0001175  94.9430 265.1697 15.08838630 82624,6917.885,95.438,540.562,538.937,0.0
